CCSDS_OMM_VERS,COMMENT,CREATION_DATE,ORIGINATOR,OBJECT_NAME,OBJECT_ID,CENTER_NAME,REF_FRAME,TIME_SYSTEM,MEAN_ELEMENT_THEORY,EPOCH,MEAN_MOTION,ECCENTRICITY,INCLINATION,RA_OF_ASC_NODE,ARG_OF_PERICENTER,MEAN_ANOMALY,EPHEMERIS_TYPE,CLASSIFICATION_TYPE,NORAD_CAT_ID,ELEMENT_SET_NO,REV_AT_EPOCH,BSTAR,MEAN_MOTION_DOT,MEAN_MOTION_DDOT,SEMIMAJOR_AXIS,PERIOD,APOAPSIS,PERIAPSIS,OBJECT_TYPE,RCS_SIZE,COUNTRY_CODE,LAUNCH_DATE,SITE,DECAY_DATE,FILE,GP_ID,TLE_LINE0,TLE_LINE1,TLE_LINE2
"2.0","GENERATED VIA SPACE-TRACK.ORG API","2019-12-21T06:20:17","18 SPCS","COSMOS 1867","1987-060A","EARTH","TEME","UTC","SGP4","2019-12-21T01:47:47.103936","14.31108731","0.00159110","65.0086","182.7578","258.1190","101.8110","0","U","18187","999","69520","0.00001073100000","-0.00000072","0.0000000000000","7166.164","100.621","799.431","776.627","PAYLOAD","LARGE","CIS","1987-07-10","TTMTR","","2670348","145218193","0 COSMOS 1867","1 18187U 87060A   19355.07485074 -.00000072  00000-0  10731-4 0  9990","2 18187  65.0086 182.7578 0015911 258.1190 101.8110 14.31108731695206"
"2.0","GENERATED VIA SPACE-TRACK.ORG API","2019-12-21T05:52:02","18 SPCS","COSMOS 1867","1987-060A","EARTH","TEME","UTC","SGP4","2019-12-20T20:45:54.003168","14.31108707","0.00159170","65.0086","183.3446","258.0930","101.8370","0","U","18187","999","69494","0.00001110600000","-0.00000071","0.0000000000000","7166.164","100.621","799.435","776.622","PAYLOAD","LARGE","CIS","1987-07-10","TTMTR","","2670333","145202746","0 COSMOS 1867","1 18187U 87060A   19354.86520837 -.00000071 +00000-0 +11106-4 0  9999","2 18187 065.0086 183.3446 0015917 258.0930 101.8370 14.31108707694945"
"2.0","GENERATED VIA SPACE-TRACK.ORG API","2019-12-21T05:52:02","18 SPCS","IRIDIUM 153","2017-083J","EARTH","TEME","UTC","SGP4","2019-12-20T16:46:59.265984","14.34218737","0.00010570","86.3989","201.0496","111.2264","248.9044","0","U","43078","999","10551","0.00002259200000","0.00000083","0.0000000000000","7155.800","100.403","778.422","776.909","PAYLOAD","LARGE","US","2017-12-23","AFWTR","","2670333","145216282","0 IRIDIUM 153","1 43078U 17083J   19354.69929706 +.00000083 +00000-0 +22592-4 0  9996","2 43078 086.3989 201.0496 0001057 111.2264 248.9044 14.34218737105512"
"2.0","GENERATED VIA SPACE-TRACK.ORG API","2019-12-20T15:40:13","18 SPCS","IRIDIUM 153","2017-083J","EARTH","TEME","UTC","SGP4","2019-12-20T13:26:03.272640","14.34218732","0.00010490","86.3988","201.1079","110.8841","249.2467","0","U","43078","999","10549","0.00002289300000","0.00000084","0.0000000000000","7155.800","100.403","778.416","776.915","PAYLOAD","LARGE","US","2017-12-23","AFWTR","","2670128","145175093","0 IRIDIUM 153","1 43078U 17083J   19354.55976010  .00000084  00000-0  22893-4 0  9996","2 43078  86.3988 201.1079 0001049 110.8841 249.2467 14.34218732105491"
"2.0","GENERATED VIA SPACE-TRACK.ORG API","2019-12-20T05:18:04","18 SPCS","COSMOS 1867","1987-060A","EARTH","TEME","UTC","SGP4","2019-12-19T21:17:06.190080","14.31108657","0.00159410","65.0087","186.0827","258.0807","101.8490","0","U","18187","999","69480","0.00001288500000","-0.00000066","0.0000000000000","7166.164","100.621","799.453","776.605","PAYLOAD","LARGE","CIS","1987-07-10","TTMTR","","2669774","145132904","0 COSMOS 1867","1 18187U 87060A   19353.88687720 -.00000066 +00000-0 +12885-4 0  9994","2 18187 065.0087 186.0827 0015941 258.0807 101.8490 14.31108657694801"
"2.0","GENERATED VIA SPACE-TRACK.ORG API","2019-12-19T22:20:16","18 SPCS","COSMOS 1867","1987-060A","EARTH","TEME","UTC","SGP4","2019-12-19T19:36:28.488096","14.31108649","0.00159450","65.0087","186.2783","258.0686","101.8610","0","U","18187","999","69502","0.00001228600000","-0.00000068","0.0000000000000","7166.164","100.621","799.455","776.603","PAYLOAD","LARGE","CIS","1987-07-10","TTMTR","","2669641","145126050","0 COSMOS 1867","1 18187U 87060A   19353.81699639 -.00000068  00000-0  12286-4 0  9996","2 18187  65.0087 186.2783 0015945 258.0686 101.8610 14.31108649695023"
"2.0","GENERATED VIA SPACE-TRACK.ORG API","2019-12-20T05:18:04","18 SPCS","IRIDIUM 153","2017-083J","EARTH","TEME","UTC","SGP4","2019-12-19T17:20:27.313440","14.34218628","0.00010120","86.3990","201.4574","108.5216","251.6089","0","U","43078","999","10537","0.00002095800000","0.00000078","0.0000000000000","7155.801","100.403","778.390","776.942","PAYLOAD","LARGE","US","2017-12-23","AFWTR","","2669774","145146440","0 IRIDIUM 153","1 43078U 17083J   19353.72253835 +.00000078 +00000-0 +20958-4 0  9990","2 43078 086.3990 201.4574 0001012 108.5216 251.6089 14.34218628105375"
"2.0","GENERATED VIA SPACE-TRACK.ORG API","2019-12-19T16:00:12","18 SPCS","IRIDIUM 153","2017-083J","EARTH","TEME","UTC","SGP4","2019-12-19T12:19:03.323424","14.34218607","0.00010010","86.3989","201.5448","108.1316","251.9989","0","U","43078","999","10534","0.00002086400000","0.00000078","0.0000000000000","7155.801","100.403","778.382","776.950","PAYLOAD","LARGE","US","2017-12-23","AFWTR","","2669594","145105571","0 IRIDIUM 153","1 43078U 17083J   19353.51323291  .00000078  00000-0  20864-4 0  9997","2 43078  86.3989 201.5448 0001001 108.1316 251.9989 14.34218607105345"
"2.0","GENERATED VIA SPACE-TRACK.ORG API","2019-12-19T04:45:16","18 SPCS","COSMOS 1867","1987-060A","EARTH","TEME","UTC","SGP4","2019-12-18T20:07:40.663776","14.31108581","0.00159720","65.0087","189.0164","258.0557","101.8736","0","U","18187","999","69465","0.00000802840000","-0.00000079","0.0000000000000","7166.164","100.621","799.475","776.583","PAYLOAD","LARGE","CIS","1987-07-10","TTMTR","","2669174","145080457","0 COSMOS 1867","1 18187U 87060A   19352.83866509 -.00000079 +00000-0 +80284-5 0  9995","2 18187 065.0087 189.0164 0015972 258.0557 101.8736 14.31108581694656"
"2.0","GENERATED VIA SPACE-TRACK.ORG API","2019-12-19T04:45:16","18 SPCS","IRIDIUM 153","2017-083J","EARTH","TEME","UTC","SGP4","2019-12-18T17:53:55.360032","14.34218468","0.00009720","86.3991","201.8653","105.8432","254.2871","0","U","43078","999","10523","0.00001736400000","0.00000068","0.0000000000000","7155.801","100.403","778.362","776.971","PAYLOAD","LARGE","US","2017-12-23","AFWTR","","2669174","145093993","0 IRIDIUM 153","1 43078U 17083J   19352.74577963 +.00000068 +00000-0 +17364-4 0  9998","2 43078 086.3991 201.8653 0000972 105.8432 254.2871 14.34218468105237"
"2.0","GENERATED VIA SPACE-TRACK.ORG API","2019-12-18T15:50:13","18 SPCS","IRIDIUM 153","2017-083J","EARTH","TEME","UTC","SGP4","2019-12-18T12:52:31.370016","14.34218446","0.00009670","86.3991","201.9526","105.1718","254.9584","0","U","43078","999","10520","0.00001725400000","0.00000068","0.0000000000000","7155.801","100.403","778.358","776.974","PAYLOAD","LARGE","US","2017-12-23","AFWTR","","2668766","145029174","0 IRIDIUM 153","1 43078U 17083J   19352.53647419  .00000068  00000-0  17254-4 0  9997","2 43078  86.3991 201.9526 0000967 105.1718 254.9584 14.34218446105202"
"2.0","GENERATED VIA SPACE-TRACK.ORG API","2019-12-18T14:20:15","18 SPCS","IRIDIUM 153","2017-083J","EARTH","TEME","UTC","SGP4","2019-12-18T07:51:07.377408","14.34218428","0.00009570","86.3991","202.0400","104.4297","255.7005","0","U","43078","999","10517","0.00001801700000","0.00000070","0.0000000000000","7155.801","100.403","778.351","776.982","PAYLOAD","LARGE","US","2017-12-23","AFWTR","","2668623","145025767","0 IRIDIUM 153","1 43078U 17083J   19352.32716872  .00000070  00000-0  18017-4 0  9995","2 43078  86.3991 202.0400 0000957 104.4297 255.7005 14.34218428105171"
"2.0","GENERATED VIA SPACE-TRACK.ORG API","2019-12-18T14:20:15","18 SPCS","COSMOS 1867","1987-060A","EARTH","TEME","UTC","SGP4","2019-12-18T06:42:39.046176","14.31108564","0.00159820","65.0088","190.5810","258.0757","101.8535","0","U","18187","999","69480","0.00000488100000","-0.00000087","0.0000000000000","7166.164","100.621","799.482","776.576","PAYLOAD","LARGE","CIS","1987-07-10","TTMTR","","2668632","145025992","0 COSMOS 1867","1 18187U 87060A   19352.27961859 -.00000087  00000-0  48810-5 0  9995","2 18187  65.0088 190.5810 0015982 258.0757 101.8535 14.31108564694800"
"2.0","GENERATED VIA SPACE-TRACK.ORG API","2019-12-18T04:21:18","18 SPCS","COSMOS 1867","1987-060A","EARTH","TEME","UTC","SGP4","2019-12-17T22:19:30.534528","14.31108542","0.00159930","65.0088","191.5589","258.0573","101.8718","0","U","18187","999","69452","0.00000214360000","-0.00000095","0.0000000000000","7166.164","100.621","799.490","776.568","PAYLOAD","LARGE","CIS","1987-07-10","TTMTR","","2668414","145005809","0 COSMOS 1867","1 18187U 87060A   19351.93021452 -.00000095 +00000-0 +21436-5 0  9997","2 18187 065.0088 191.5589 0015993 258.0573 101.8718 14.31108542694520"
"2.0","GENERATED VIA SPACE-TRACK.ORG API","2019-12-18T04:21:18","18 SPCS","IRIDIUM 153","2017-083J","EARTH","TEME","UTC","SGP4","2019-12-17T16:46:55.403904","14.34218314","0.00009380","86.3992","202.3022","102.0334","258.0967","0","U","43078","999","10508","0.00001480900000","0.00000061","0.0000000000000","7155.802","100.403","778.338","776.996","PAYLOAD","LARGE","US","2017-12-23","AFWTR","","2668414","145019345","0 IRIDIUM 153","1 43078U 17083J   19351.69925236 +.00000061 +00000-0 +14809-4 0  9995","2 43078 086.3992 202.3022 0000938 102.0334 258.0967 14.34218314105087"
"2.0","GENERATED VIA SPACE-TRACK.ORG API","2019-12-17T15:40:14","18 SPCS","IRIDIUM 153","2017-083J","EARTH","TEME","UTC","SGP4","2019-12-17T05:03:39.421152","14.34218268","0.00009250","86.3992","202.5061","100.3558","259.7742","0","U","43078","999","10501","0.00001570600000","0.00000064","0.0000000000000","7155.802","100.403","778.329","777.005","PAYLOAD","LARGE","US","2017-12-23","AFWTR","","2668208","144978113","0 IRIDIUM 153","1 43078U 17083J   19351.21087293  .00000064  00000-0  15706-4 0  9995","2 43078  86.3992 202.5061 0000925 100.3558 259.7742 14.34218268105017"
